COMMENT,ORIGINATOR,NORAD_CAT_ID,OBJECT_NAME,OBJECT_TYPE,CLASSIFICATION_TYPE,INTLDES,EPOCH,EPOCH_MICROSECONDS,MEAN_MOTION,ECCENTRICITY,INCLINATION,RA_OF_ASC_NODE,ARG_OF_PERICENTER,MEAN_ANOMALY,EPHEMERIS_TYPE,ELEMENT_SET_NO,REV_AT_EPOCH,BSTAR,MEAN_MOTION_DOT,MEAN_MOTION_DDOT,FILE,TLE_LINE0,TLE_LINE1,TLE_LINE2,OBJECT_ID,OBJECT_NUMBER,SEMIMAJOR_AXIS,PERIOD,APOGEE,PERIGEE,DECAYED,date
GENERATED VIA SPACETRACK.ORG API,18 SPCS,48904,SPACEBEE-111,PAYLOAD,U,21059AB,2023/4/2 7:55,821440,15.2841952,0.0009146,97.5861,228.7583,179.3173,180.8081,0,999,9785,0.0018071,0.00050261,0,3878126,0 SPACEBEE-111,1 48904U 21059AB  23092.33041460  .00050261  00000-0  18071-2 0  9992,2 48904  97.5861 228.7583 0009146 179.3173 180.8081 15.28419520 97851,2021-059AB,48904,6858.673,94.215,486.811,474.265,0,
GENERATED VIA SPACETRACK.ORG API,18 SPCS,48904,SPACEBEE-111,PAYLOAD,U,21059AB,2023/4/2 22:04,784896,15.28466744,0.0009122,97.5862,229.3584,177.3315,182.7975,0,999,9794,0.0014369,0.00039951,0,3878419,0 SPACEBEE-111,1 48904U 21059AB  23092.91962714  .00039951  00000-0  14369-2 0  9999,2 48904  97.5862 229.3584 0009122 177.3315 182.7975 15.28466744 97943,2021-059AB,48904,6858.532,94.212,486.654,474.141,0,
GENERATED VIA SPACETRACK.ORG API,18 SPCS,48904,SPACEBEE-111,PAYLOAD,U,21059AB,2023/4/2 22:04,784896,15.28466744,0.0009122,97.5862,229.3584,177.3315,182.7975,0,999,9794,0.0014369,0.00039951,0,3878544,0 SPACEBEE-111,1 48904U 21059AB  23092.91962714  .00039951  00000-0  14369-2 0  9999,2 48904  97.5862 229.3584 0009122 177.3315 182.7975 15.28466744 97943,2021-059AB,48904,6858.532,94.212,486.654,474.141,0,
GENERATED VIA SPACETRACK.ORG API,18 SPCS,48904,SPACEBEE-111,PAYLOAD,U,21059AB,2023/4/3 9:04,618240,15.28514215,0.0009074,97.5864,229.8251,175.5815,184.5506,0,999,9801,0.0016959,0.0004728,0,3879059,0 SPACEBEE-111,1 48904U 21059AB  23093.37788910  .00047280  00000-0  16959-2 0  9995,2 48904  97.5864 229.8251 0009074 175.5815 184.5506 15.28514215 98018,2021-059AB,48904,6858.39,94.209,486.478,474.032,0,
GENERATED VIA SPACETRACK.ORG API,18 SPCS,48904,SPACEBEE-111,PAYLOAD,U,21059AB,2023/4/3 9:04,618240,15.28514215,0.0009074,97.5864,229.8251,175.5815,184.5506,0,999,9801,0.0016959,0.0004728,0,3879166,0 SPACEBEE-111,1 48904U 21059AB  23093.37788910  .00047280  00000-0  16959-2 0  9995,2 48904  97.5864 229.8251 0009074 175.5815 184.5506 15.28514215 98018,2021-059AB,48904,6858.39,94.209,486.478,474.032,0,
GENERATED VIA SPACETRACK.ORG API,18 SPCS,48904,SPACEBEE-111,PAYLOAD,U,21059AB,2023/4/4 8:38,76640,15.28600811,0.0008982,97.5867,230.825,172.449,187.6886,0,999,9816,0.0016868,0.00047149,0,3879974,0 SPACEBEE-111,1 48904U 21059AB  23094.35983885  .00047149  00000-0  16868-2 0  9995,2 48904  97.5867 230.8250 0008982 172.4490 187.6886 15.28600811 98163,2021-059AB,48904,6858.131,94.204,486.156,473.836,0,
GENERATED VIA SPACETRACK.ORG API,18 SPCS,48904,SPACEBEE-111,PAYLOAD,U,21059AB,2023/4/4 8:38,76640,15.28600811,0.0008982,97.5867,230.825,172.449,187.6886,0,999,9816,0.0016868,0.00047149,0,3880076,0 SPACEBEE-111,1 48904U 21059AB  23094.35983885  .00047149  00000-0  16868-2 0  9995,2 48904  97.5867 230.8250 0008982 172.4490 187.6886 15.28600811 98163,2021-059AB,48904,6858.131,94.204,486.156,473.836,0,
GENERATED VIA SPACETRACK.ORG API,18 SPCS,48904,SPACEBEE-111,PAYLOAD,U,21059AB,2023/4/4 22:46,43936,15.28646039,0.000899,97.5871,231.4259,170.8417,189.2988,0,999,9825,0.0013809,0.00038594,0,3880381,0 SPACEBEE-111,1 48904U 21059AB  23094.94898199  .00038594  00000-0  13809-2 0  9999,2 48904  97.5871 231.4259 0008990 170.8417 189.2988 15.28646039 98257,2021-059AB,48904,6857.996,94.201,486.026,473.696,0,
GENERATED VIA SPACETRACK.ORG API,18 SPCS,48904,SPACEBEE-111,PAYLOAD,U,21059AB,2023/4/5 14:29,773216,15.28703827,0.0008788,97.5873,232.0929,169.1814,190.9616,0,999,9835,0.0014916,0.00041783,0,3880853,0 SPACEBEE-111,1 48904U 21059AB  23095.60356219  .00041783  00000-0  14916-2 0  9999,2 48904  97.5873 232.0929 0008788 169.1814 190.9616 15.28703827 98354,2021-059AB,48904,6857.823,94.197,485.715,473.661,0,
GENERATED VIA SPACETRACK.ORG API,18 SPCS,48904,SPACEBEE-111,PAYLOAD,U,21059AB,2023/4/5 20:46,449760,15.28729265,0.0008796,97.5874,232.3597,168.1888,191.9559,0,999,9839,0.0015369,0.00043096,0,3881030,0 SPACEBEE-111,1 48904U 21059AB  23095.86538715  .00043096  00000-0  15369-2 0  9992,2 48904  97.5874 232.3597 0008796 168.1888 191.9559 15.28729265 98393,2021-059AB,48904,6857.747,94.196,485.644,473.58,0,
GENERATED VIA SPACETRACK.ORG API,18 SPCS,48904,SPACEBEE-111,PAYLOAD,U,21059AB,2023/4/6 7:45,694240,15.28765079,0.0008839,97.5873,232.8265,166.409,193.7389,0,999,9846,0.0014407,0.00040424,0,3881771,0 SPACEBEE-111,1 48904U 21059AB  23096.32357285  .00040424  00000-0  14407-2 0  9999,2 48904  97.5873 232.8265 0008839 166.4090 193.7389 15.28765079 98465,2021-059AB,48904,6857.64,94.194,485.566,473.443,0,
GENERATED VIA SPACETRACK.ORG API,18 SPCS,48904,SPACEBEE-111,PAYLOAD,U,21059AB,2023/4/7 2:36,235040,15.28830749,0.0008936,97.5876,233.6271,163.2129,196.9407,0,999,9858,0.0015094,0.00042452,0,3882179,0 SPACEBEE-111,1 48904U 21059AB  23097.10900735  .00042452  00000-0  15094-2 0  9996,2 48904  97.5876 233.6271 0008936 163.2129 196.9407 15.28830749 98586,2021-059AB,48904,6857.443,94.19,485.436,473.181,0,
GENERATED VIA SPACETRACK.ORG API,18 SPCS,48904,SPACEBEE-111,PAYLOAD,U,21059AB,2023/4/7 8:53,84224,15.28854721,0.0008914,97.5877,233.8938,162.2419,197.9134,0,999,9862,0.0015349,0.00043207,0,3882626,0 SPACEBEE-111,1 48904U 21059AB  23097.37081116  .00043207  00000-0  15349-2 0  9990,2 48904  97.5877 233.8938 0008914 162.2419 197.9134 15.28854721 98625,2021-059AB,48904,6857.372,94.188,485.349,473.124,0,
GENERATED VIA SPACETRACK.ORG API,18 SPCS,48904,SPACEBEE-111,PAYLOAD,U,21059AB,2023/4/8 8:27,773952,15.28929991,0.0008888,97.5879,234.8945,159.0848,201.0756,0,999,9877,0.0013467,0.0003796,0,3883345,0 SPACEBEE-111,1 48904U 21059AB  23098.35254368  .00037960  00000-0  13467-2 0  9998,2 48904  97.5879 234.8945 0008888 159.0848 201.0756 15.28929991 98771,2021-059AB,48904,6857.147,94.184,485.106,472.917,0,
GENERATED VIA SPACETRACK.ORG API,18 SPCS,48904,SPACEBEE-111,PAYLOAD,U,21059AB,2023/4/8 8:27,773952,15.28929991,0.0008888,97.5879,234.8945,159.0848,201.0756,0,999,9877,0.0013467,0.0003796,0,3883527,0 SPACEBEE-111,1 48904U 21059AB  23098.35254368  .00037960  00000-0  13467-2 0  9998,2 48904  97.5879 234.8945 0008888 159.0848 201.0756 15.28929991 98771,2021-059AB,48904,6857.147,94.184,485.106,472.917,0,
GENERATED VIA SPACETRACK.ORG API,18 SPCS,48904,SPACEBEE-111,PAYLOAD,U,21059AB,2023/4/9 8:01,221440,15.29007316,0.0008843,97.5885,235.8958,156.2847,203.8801,0,999,9892,0.0013966,0.0003947,0,3884332,0 SPACEBEE-111,1 48904U 21059AB  23099.33422710  .00039470  00000-0  13966-2 0  9997,2 48904  97.5885 235.8958 0008843 156.2847 203.8801 15.29007316 98929,2021-059AB,48904,6856.916,94.179,484.844,472.717,0,
GENERATED VIA SPACETRACK.ORG API,18 SPCS,48904,SPACEBEE-111,PAYLOAD,U,21059AB,2023/4/9 19:00,298176,15.29041902,0.0008816,97.5884,236.3623,154.5233,205.6443,0,999,9899,0.0013678,0.00038691,0,3884457,0 SPACEBEE-111,1 48904U 21059AB  23099.79232984  .00038691  00000-0  13678-2 0  9993,2 48904  97.5884 236.3623 0008816 154.5233 205.6443 15.29041902 98991,2021-059AB,48904,6856.812,94.177,484.722,472.632,0,
GENERATED VIA SPACETRACK.ORG API,18 SPCS,48904,SPACEBEE-111,PAYLOAD,U,21059AB,2023/4/9 19:00,298176,15.29041902,0.0008816,97.5884,236.3623,154.5233,205.6443,0,999,9899,0.0013678,0.00038691,0,3884641,0 SPACEBEE-111,1 48904U 21059AB  23099.79232984  .00038691  00000-0  13678-2 0  9993,2 48904  97.5884 236.3623 0008816 154.5233 205.6443 15.29041902 98991,2021-059AB,48904,6856.812,94.177,484.722,472.632,0,
GENERATED VIA SPACETRACK.ORG API,18 SPCS,48904,SPACEBEE-111,PAYLOAD,U,21059AB,2023/4/10 9:09,535136,15.29091074,0.0008869,97.5884,236.9635,152.8216,207.3489,0,999,9908,0.0014744,0.00041794,0,3885195,0 SPACEBEE-111,1 48904U 21059AB  23100.38130249  .00041794  00000-0  14744-2 0  9995,2 48904  97.5884 236.9635 0008869 152.8216 207.3489 15.29091074 99085,2021-059AB,48904,6856.665,94.174,484.611,472.449,0,
GENERATED VIA SPACETRACK.ORG API,18 SPCS,48904,SPACEBEE-111,PAYLOAD,U,21059AB,2023/4/11 8:42,869152,15.29170712,0.0008862,97.5885,237.9646,149.2019,210.9742,0,999,9923,0.0012817,0.00036384,0,3885783,0 SPACEBEE-111,1 48904U 21059AB  23101.36288043  .00036384  00000-0  12817-2 0  9998,2 48904  97.5885 237.9646 0008862 149.2019 210.9742 15.29170712 99239,2021-059AB,48904,6856.427,94.169,484.368,472.216,0,
GENERATED VIA SPACETRACK.ORG API,18 SPCS,48904,SPACEBEE-111,PAYLOAD,U,21059AB,2023/4/11 14:59,624192,15.29196469,0.0008849,97.5884,238.2316,148.2539,211.9236,0,999,9927,0.0014506,0.00041247,0,3885919,0 SPACEBEE-111,1 48904U 21059AB  23101.62462528  .00041247  00000-0  14506-2 0  9990,2 48904  97.5884 238.2316 0008849 148.2539 211.9236 15.29196469 99277,2021-059AB,48904,6856.35,94.167,484.282,472.148,0,
GENERATED VIA SPACETRACK.ORG API,18 SPCS,48904,SPACEBEE-111,PAYLOAD,U,21059AB,2023/4/12 8:15,655936,15.29251668,0.0008739,97.5882,238.966,146.1024,214.0775,0,999,9938,0.0012868,0.0003662,0,3886302,0 SPACEBEE-111,1 48904U 21059AB  23102.34440574  .00036620  00000-0  12868-2 0  9995,2 48904  97.5882 238.9660 0008739 146.1024 214.0775 15.29251668 99385,2021-059AB,48904,6856.185,94.164,484.042,472.058,0,
GENERATED VIA SPACETRACK.ORG API,18 SPCS,48904,SPACEBEE-111,PAYLOAD,U,21059AB,2023/4/12 8:15,655936,15.29251668,0.0008739,97.5882,238.966,146.1024,214.0775,0,999,9938,0.0012868,0.0003662,0,3886349,0 SPACEBEE-111,1 48904U 21059AB  23102.34440574  .00036620  00000-0  12868-2 0  9995,2 48904  97.5882 238.9660 0008739 146.1024 214.0775 15.29251668 99385,2021-059AB,48904,6856.185,94.164,484.042,472.058,0,
